{
  "norad_id": 55742,
  "name": "STARLINK-5594",
  "history": [
    {
      "epoch": "2026-03-28T16:42:35.613792Z",
      "apogee_km": 574.46984877859,
      "perigee_km": 570.2067052626771,
      "latitude_deg": -2.4923157280054166e-05,
      "longitude_deg": 119.91211342264617,
      "height_km": 575.1457764341224,
      "semi_major_axis_km": 6950.475277020633,
      "eccentricity": 0.00030668,
      "inclination_deg": 70.0007,
      "raan_deg": 196.6735,
      "arg_perigee_deg": 259.7304,
      "mean_anomaly_deg": 100.3509,
      "mean_motion_rev_day": 14.98238689
    },
    {
      "epoch": "2026-03-29T00:43:09.091776Z",
      "apogee_km": 574.2838733172484,
      "perigee_km": 569.8246306099891,
      "latitude_deg": -5.73617345324639e-05,
      "longitude_deg": -1.3977202625712075,
      "height_km": 574.4057359059826,
      "semi_major_axis_km": 6950.191251963619,
      "eccentricity": 0.0003208,
      "inclination_deg": 70.0004,
      "raan_deg": 195.8321,
      "arg_perigee_deg": 271.9584,
      "mean_anomaly_deg": 88.1207,
      "mean_motion_rev_day": 14.9833053
    },
    {
      "epoch": "2026-03-30T04:00:01.999584Z",
      "apogee_km": 574.5108886426578,
      "perigee_km": 569.8041491944459,
      "latitude_deg": 9.191073024341552,
      "longitude_deg": -51.24747439549262,
      "height_km": 574.2828590451999,
      "semi_major_axis_km": 6950.294518918551,
      "eccentricity": 0.0003386,
      "inclination_deg": 70.0021,
      "raan_deg": 192.9658,
      "arg_perigee_deg": 269.3598,
      "mean_anomaly_deg": 100.4424,
      "mean_motion_rev_day": 14.98297137
    },
    {
      "epoch": "2026-03-30T06:00:02.000160Z",
      "apogee_km": 574.4263037604615,
      "perigee_km": 569.7450507784133,
      "latitude_deg": 68.18987002795797,
      "longitude_deg": 30.353784540699206,
      "height_km": 585.566308437895,
      "semi_major_axis_km": 6950.222677269437,
      "eccentricity": 0.00033677,
      "inclination_deg": 70.0023,
      "raan_deg": 192.7561,
      "arg_perigee_deg": 269.146,
      "mean_anomaly_deg": 190.012,
      "mean_motion_rev_day": 14.98320368
    },
    {
      "epoch": "2026-03-30T08:00:01.000224Z",
      "apogee_km": 574.3508529481151,
      "perigee_km": 569.6460282629523,
      "latitude_deg": -8.065795503339059,
      "longitude_deg": 67.75527471318,
      "height_km": 575.4623294407759,
      "semi_major_axis_km": 6950.135440605533,
      "eccentricity": 0.00033847,
      "inclination_deg": 70.0024,
      "raan_deg": 192.546,
      "arg_perigee_deg": 269.6417,
      "mean_anomaly_deg": 278.816,
      "mean_motion_rev_day": 14.98348578
    },
    {
      "epoch": "2026-03-30T15:10:22.543104Z",
      "apogee_km": 574.3878181911159,
      "perigee_km": 569.6771323241755,
      "latitude_deg": -4.5324622695582694e-05,
      "longitude_deg": 136.1748992761397,
      "height_km": 574.2304403305579,
      "semi_major_axis_km": 6950.169475257645,
      "eccentricity": 0.00033889,
      "inclination_deg": 69.9998,
      "raan_deg": 191.79,
      "arg_perigee_deg": 275.5993,
      "mean_anomaly_deg": 84.4779,
      "mean_motion_rev_day": 14.98337572
    },
    {
      "epoch": "2026-03-31T13:36:15.288768Z",
      "apogee_km": 575.1771098756326,
      "perigee_km": 568.8000916319161,
      "latitude_deg": 3.553851171353244e-05,
      "longitude_deg": 156.4307346617624,
      "height_km": 572.9419191628051,
      "semi_major_axis_km": 6950.125600753774,
      "eccentricity": 0.00045877,
      "inclination_deg": 70.0007,
      "raan_deg": 189.4368,
      "arg_perigee_deg": 297.5542,
      "mean_anomaly_deg": 62.5151,
      "mean_motion_rev_day": 14.9835176
    },
    {
      "epoch": "2026-04-01T08:49:52.397184Z",
      "apogee_km": 574.2251627024152,
      "perigee_km": 569.8854626223883,
      "latitude_deg": 6.308229501732545e-05,
      "longitude_deg": -134.78229649391315,
      "height_km": 574.438643654281,
      "semi_major_axis_km": 6950.1923126624015,
      "eccentricity": 0.0003122,
      "inclination_deg": 70.001,
      "raan_deg": 187.418,
      "arg_perigee_deg": 271.1699,
      "mean_anomaly_deg": 88.9103,
      "mean_motion_rev_day": 14.98330187
    },
    {
      "epoch": "2026-04-02T20:00:01.999008Z",
      "apogee_km": 574.2822650747439,
      "perigee_km": 569.6507161086138,
      "latitude_deg": -16.937447324746618,
      "longitude_deg": 46.209275337340145,
      "height_km": 577.2321439018331,
      "semi_major_axis_km": 6950.103490591679,
      "eccentricity": 0.0003332,
      "inclination_deg": 70.0019,
      "raan_deg": 183.7223,
      "arg_perigee_deg": 273.9974,
      "mean_anomaly_deg": 68.1239,
      "mean_motion_rev_day": 14.9835891
    },
    {
      "epoch": "2026-04-02T22:00:01.999584Z",
      "apogee_km": 574.2747184270611,
      "perigee_km": 569.6772186983562,
      "latitude_deg": 63.136404392330505,
      "longitude_deg": 67.85246696848743,
      "height_km": 584.3646758375114,
      "semi_major_axis_km": 6950.112968562708,
      "eccentricity": 0.00033075,
      "inclination_deg": 70.002,
      "raan_deg": 183.5122,
      "arg_perigee_deg": 272.2575,
      "mean_anomaly_deg": 159.2406,
      "mean_motion_rev_day": 14.98355845
    },
    {
      "epoch": "2026-04-03T20:00:01.999008Z",
      "apogee_km": 574.3690713598644,
      "perigee_km": 569.6082352873382,
      "latitude_deg": -23.987150549947373,
      "longitude_deg": 39.76272698094608,
      "height_km": 579.2079502150324,
      "semi_major_axis_km": 6950.125653323601,
      "eccentricity": 0.0003425,
      "inclination_deg": 70.0017,
      "raan_deg": 181.2011,
      "arg_perigee_deg": 275.553,
      "mean_anomaly_deg": 59.0275,
      "mean_motion_rev_day": 14.98351743
    },
    {
      "epoch": "2026-04-04T15:20:27.284352Z",
      "apogee_km": 574.0891251700141,
      "perigee_km": 570.0051969569731,
      "latitude_deg": 1.0821877586367807e-05,
      "longitude_deg": 116.09864374992193,
      "height_km": 574.7216951383195,
      "semi_major_axis_km": 6950.184161063494,
      "eccentricity": 0.0002938,
      "inclination_deg": 70.0009,
      "raan_deg": 179.1686,
      "arg_perigee_deg": 263.0507,
      "mean_anomaly_deg": 97.0318,
      "mean_motion_rev_day": 14.98332823
    },
    {
      "epoch": "2026-04-05T13:46:20.932032Z",
      "apogee_km": 574.3916248936903,
      "perigee_km": 569.7622264020956,
      "latitude_deg": 1.0296279511116539e-05,
      "longitude_deg": 136.3484783929231,
      "height_km": 574.3818267399074,
      "semi_major_axis_km": 6950.213925647893,
      "eccentricity": 0.00033304,
      "inclination_deg": 70.0006,
      "raan_deg": 176.8132,
      "arg_perigee_deg": 273.0432,
      "mean_anomaly_deg": 87.0346,
      "mean_motion_rev_day": 14.98323198
    },
    {
      "epoch": "2026-04-05T15:22:29.030592Z",
      "apogee_km": 574.3723193708611,
      "perigee_km": 569.782397808448,
      "latitude_deg": 1.1462304950241184e-05,
      "longitude_deg": 112.08063264251841,
      "height_km": 574.4195803468666,
      "semi_major_axis_km": 6950.214358589654,
      "eccentricity": 0.0003302,
      "inclination_deg": 70.0006,
      "raan_deg": 176.6449,
      "arg_perigee_deg": 272.1362,
      "mean_anomaly_deg": 87.9419,
      "mean_motion_rev_day": 14.98323058
    },
    {
      "epoch": "2026-04-06T05:47:41.248032Z",
      "apogee_km": 574.3350455713462,
      "perigee_km": 569.7696052072833,
      "latitude_deg": -1.4522274275076435e-05,
      "longitude_deg": -106.32719484329691,
      "height_km": 574.3594735929111,
      "semi_major_axis_km": 6950.189325389314,
      "eccentricity": 0.00032844,
      "inclination_deg": 70.0005,
      "raan_deg": 175.1302,
      "arg_perigee_deg": 273.0284,
      "mean_anomaly_deg": 87.0499,
      "mean_motion_rev_day": 14.98331153
    },
    {
      "epoch": "2026-04-07T10:38:59.040096Z",
      "apogee_km": 574.8519519742676,
      "perigee_km": 573.1944179429702,
      "latitude_deg": -3.923420518694221e-05,
      "longitude_deg": 176.63622905847032,
      "height_km": 575.8139813542917,
      "semi_major_axis_km": 6952.160184958619,
      "eccentricity": 0.00011921,
      "inclination_deg": 70.0001,
      "raan_deg": 172.1028,
      "arg_perigee_deg": 319.8356,
      "mean_anomaly_deg": 40.2714,
      "mean_motion_rev_day": 14.97694058
    },
    {
      "epoch": "2026-04-07T20:00:00.999360Z",
      "apogee_km": 574.3206848387781,
      "perigee_km": 569.5987891156747,
      "latitude_deg": -51.141249373028394,
      "longitude_deg": 8.31187577602158,
      "height_km": 589.1433622292898,
      "semi_major_axis_km": 6950.096736977226,
      "eccentricity": 0.0003397,
      "inclination_deg": 70.0007,
      "raan_deg": 171.1168,
      "arg_perigee_deg": 275.6223,
      "mean_anomaly_deg": 28.6662,
      "mean_motion_rev_day": 14.98361094
    },
    {
      "epoch": "2026-04-08T05:52:16.152096Z",
      "apogee_km": 574.2129014799448,
      "perigee_km": 572.1765783600531,
      "latitude_deg": -3.547716528800822e-05,
      "longitude_deg": -114.49456763660956,
      "height_km": 576.5795436703504,
      "semi_major_axis_km": 6951.331739919999,
      "eccentricity": 0.00014647,
      "inclination_deg": 70.0013,
      "raan_deg": 170.0827,
      "arg_perigee_deg": 199.387,
      "mean_anomaly_deg": 160.7233,
      "mean_motion_rev_day": 14.97961804
    },
    {
      "epoch": "2026-04-11T10:46:09.517728Z",
      "apogee_km": 574.503764523909,
      "perigee_km": 569.5872054340352,
      "latitude_deg": -7.275755943783117e-05,
      "longitude_deg": 160.79395864652935,
      "height_km": 574.4250862571959,
      "semi_major_axis_km": 6950.182484978972,
      "eccentricity": 0.0003537,
      "inclination_deg": 69.9993,
      "raan_deg": 162.0017,
      "arg_perigee_deg": 271.1262,
      "mean_anomaly_deg": 88.9491,
      "mean_motion_rev_day": 14.98333365
    }
  ]
}